{
  "norad_id": 65761,
  "name": "STARLINK-34889",
  "history": [
    {
      "epoch": "2026-03-28T18:42:05.566176Z",
      "apogee_km": 475.88506196803064,
      "perigee_km": 474.3693940513631,
      "latitude_deg": 6.531468856059242e-05,
      "longitude_deg": 137.68707517760217,
      "height_km": 475.92114618939905,
      "semi_major_axis_km": 6853.264228009696,
      "eccentricity": 0.00011058,
      "inclination_deg": 53.1577,
      "raan_deg": 244.405,
      "arg_perigee_deg": 82.1007,
      "mean_anomaly_deg": 278.012,
      "mean_motion_rev_day": 15.3022942
    },
    {
      "epoch": "2026-03-29T22:55:02.889984Z",
      "apogee_km": 475.91621917875364,
      "perigee_km": 474.40383359097086,
      "latitude_deg": -7.1827766870644566e-06,
      "longitude_deg": 67.8267855652036,
      "height_km": 475.9236390529155,
      "semi_major_axis_km": 6853.297026384862,
      "eccentricity": 0.00011034,
      "inclination_deg": 53.1578,
      "raan_deg": 238.9424,
      "arg_perigee_deg": 79.7556,
      "mean_anomaly_deg": 280.3569,
      "mean_motion_rev_day": 15.30218435
    },
    {
      "epoch": "2026-03-30T13:01:32.049984Z",
      "apogee_km": 475.90304192834265,
      "perigee_km": 474.64119224170554,
      "latitude_deg": -1.0336373639738169e-06,
      "longitude_deg": -147.10410828181708,
      "height_km": 475.91413395878686,
      "semi_major_axis_km": 6853.409117085023,
      "eccentricity": 9.206e-05,
      "inclination_deg": 53.159,
      "raan_deg": 236.2124,
      "arg_perigee_deg": 66.0096,
      "mean_anomaly_deg": 294.1001,
      "mean_motion_rev_day": 15.30180894
    },
    {
      "epoch": "2026-03-30T17:43:41.671200Z",
      "apogee_km": 475.9840472097485,
      "perigee_km": 474.47548411729076,
      "latitude_deg": -4.554379881076338e-05,
      "longitude_deg": 141.25193848186095,
      "height_km": 476.02291706531383,
      "semi_major_axis_km": 6853.36676566352,
      "eccentricity": 0.00011006,
      "inclination_deg": 53.1588,
      "raan_deg": 235.3017,
      "arg_perigee_deg": 81.9946,
      "mean_anomaly_deg": 278.1179,
      "mean_motion_rev_day": 15.30195078
    },
    {
      "epoch": "2026-03-31T18:48:32.742720Z",
      "apogee_km": 475.7166339807918,
      "perigee_km": 474.6886330357647,
      "latitude_deg": -6.3828158515965154e-06,
      "longitude_deg": 119.15523702196444,
      "height_km": 475.6814893714305,
      "semi_major_axis_km": 6853.339633508278,
      "eccentricity": 7.5e-05,
      "inclination_deg": 53.1602,
      "raan_deg": 230.4478,
      "arg_perigee_deg": 35.1343,
      "mean_anomaly_deg": 324.9707,
      "mean_motion_rev_day": 15.30204165
    },
    {
      "epoch": "2026-04-01T15:11:14.405568Z",
      "apogee_km": 475.69790331754575,
      "perigee_km": 474.7466570494562,
      "latitude_deg": -5.976225472842669e-06,
      "longitude_deg": 168.70063864329168,
      "height_km": 475.6732511626893,
      "semi_major_axis_km": 6853.3592801835,
      "eccentricity": 6.94e-05,
      "inclination_deg": 53.1606,
      "raan_deg": 226.5037,
      "arg_perigee_deg": 19.433,
      "mean_anomaly_deg": 340.6697,
      "mean_motion_rev_day": 15.30197585
    },
    {
      "epoch": "2026-04-02T17:50:08.167776Z",
      "apogee_km": 475.81156610580274,
      "perigee_km": 474.49984588187544,
      "latitude_deg": 1.5742369365434268e-05,
      "longitude_deg": 122.72494114472111,
      "height_km": 475.8667129672889,
      "semi_major_axis_km": 6853.292705993839,
      "eccentricity": 9.57e-05,
      "inclination_deg": 53.1651,
      "raan_deg": 221.3464,
      "arg_perigee_deg": 73.3335,
      "mean_anomaly_deg": 286.7771,
      "mean_motion_rev_day": 15.30219882
    },
    {
      "epoch": "2026-04-02T17:50:08.168640Z",
      "apogee_km": 475.8117031716574,
      "perigee_km": 474.49970881602167,
      "latitude_deg": 1.3962516908370141e-05,
      "longitude_deg": 122.72493620906017,
      "height_km": 475.86667365914275,
      "semi_major_axis_km": 6853.292705993839,
      "eccentricity": 9.572e-05,
      "inclination_deg": 53.1651,
      "raan_deg": 221.3464,
      "arg_perigee_deg": 73.3335,
      "mean_anomaly_deg": 286.7771,
      "mean_motion_rev_day": 15.30219882
    },
    {
      "epoch": "2026-04-03T17:20:55.788288Z",
      "apogee_km": 475.84736544709995,
      "perigee_km": 474.9303636864206,
      "latitude_deg": -2.77427509769357e-05,
      "longitude_deg": 124.51013611588462,
      "height_km": 475.8608559074042,
      "semi_major_axis_km": 6853.52586456676,
      "eccentricity": 6.69e-05,
      "inclination_deg": 53.1598,
      "raan_deg": 216.7957,
      "arg_perigee_deg": 21.2288,
      "mean_anomaly_deg": 338.874,
      "mean_motion_rev_day": 15.30141795
    },
    {
      "epoch": "2026-04-04T15:17:41.393760Z",
      "apogee_km": 476.0672246169679,
      "perigee_km": 474.42104246869076,
      "latitude_deg": -6.122022801272636e-05,
      "longitude_deg": 150.17449748993093,
      "height_km": 475.457659147373,
      "semi_major_axis_km": 6853.381133542829,
      "eccentricity": 0.0001201,
      "inclination_deg": 53.1594,
      "raan_deg": 212.5514,
      "arg_perigee_deg": 33.6331,
      "mean_anomaly_deg": 326.4745,
      "mean_motion_rev_day": 15.30190266
    },
    {
      "epoch": "2026-04-05T13:14:26.829024Z",
      "apogee_km": 475.9658058876357,
      "perigee_km": 474.46656634463943,
      "latitude_deg": 4.0156911288584943e-05,
      "longitude_deg": 175.83606977432927,
      "height_km": 475.55285446550613,
      "semi_major_axis_km": 6853.353186116137,
      "eccentricity": 0.00010938,
      "inclination_deg": 53.1592,
      "raan_deg": 208.3035,
      "arg_perigee_deg": 41.4282,
      "mean_anomaly_deg": 318.6802,
      "mean_motion_rev_day": 15.30199626
    },
    {
      "epoch": "2026-04-05T16:22:33.050208Z",
      "apogee_km": 475.741026151607,
      "perigee_km": 474.633528948355,
      "latitude_deg": -8.28776566553982e-06,
      "longitude_deg": 128.0743594475611,
      "height_km": 475.7827733464726,
      "semi_major_axis_km": 6853.32427754998,
      "eccentricity": 8.08e-05,
      "inclination_deg": 53.1586,
      "raan_deg": 207.6965,
      "arg_perigee_deg": 56.7979,
      "mean_anomaly_deg": 303.3099,
      "mean_motion_rev_day": 15.30209308
    },
    {
      "epoch": "2026-04-06T00:12:48.963456Z",
      "apogee_km": 476.05899959200815,
      "perigee_km": 474.3266148833354,
      "latitude_deg": -3.2599462745579523e-06,
      "longitude_deg": 8.668372296667583,
      "height_km": 475.8779591403333,
      "semi_major_axis_km": 6853.329807237672,
      "eccentricity": 0.00012639,
      "inclination_deg": 53.1585,
      "raan_deg": 206.1787,
      "arg_perigee_deg": 75.7763,
      "mean_anomaly_deg": 284.3378,
      "mean_motion_rev_day": 15.30207456
    },
    {
      "epoch": "2026-04-07T13:50:05.056224Z",
      "apogee_km": 475.5493122691232,
      "perigee_km": 474.89687238833267,
      "latitude_deg": 2.412536058689087e-05,
      "longitude_deg": 155.52369016113207,
      "height_km": 475.91441874575594,
      "semi_major_axis_km": 6853.360092328728,
      "eccentricity": 4.76e-05,
      "inclination_deg": 53.1578,
      "raan_deg": 198.8961,
      "arg_perigee_deg": 50.4562,
      "mean_anomaly_deg": 309.6481,
      "mean_motion_rev_day": 15.30197313
    }
  ]
}